[{
    "OBJECT_NAME": "STARLINK-1322",
    "OBJECT_ID": "2020-025X",
    "EPOCH": "2022-07-20T06:56:31.051392",
    "MEAN_MOTION": 15.69480724,
    "ECCENTRICITY": 0.0007076,
    "INCLINATION": 53.0401,
    "RA_OF_ASC_NODE": 205.675,
    "ARG_OF_PERICENTER": 325.1243,
    "MEAN_ANOMALY": 34.9309,
    "EPHEMERIS_TYPE": 0,
    "CLASSIFICATION_TYPE": "U",
    "NORAD_CAT_ID": 45552,
    "ELEMENT_SET_NO": 999,
    "REV_AT_EPOCH": 12633,
    "BSTAR": 0.00053598,
    "MEAN_MOTION_DOT": 0.00064315,
    "MEAN_MOTION_DDOT": 0
},{
    "OBJECT_NAME": "STARLINK-1323",
    "OBJECT_ID": "2020-025Y",
    "EPOCH": "2022-07-20T17:08:48.653664",
    "MEAN_MOTION": 15.06417907,
    "ECCENTRICITY": 0.0001512,
    "INCLINATION": 53.0524,
    "RA_OF_ASC_NODE": 288.1192,
    "ARG_OF_PERICENTER": 73.0745,
    "MEAN_ANOMALY": 287.041,
    "EPHEMERIS_TYPE": 0,
    "CLASSIFICATION_TYPE": "U",
    "NORAD_CAT_ID": 45553,
    "ELEMENT_SET_NO": 999,
    "REV_AT_EPOCH": 12392,
    "BSTAR": 0.00025888,
    "MEAN_MOTION_DOT": 3.578e-5,
    "MEAN_MOTION_DDOT": 0
},{
    "OBJECT_NAME": "STARLINK-1325",
    "OBJECT_ID": "2020-025Z",
    "EPOCH": "2022-07-20T23:19:01.138080",
    "MEAN_MOTION": 15.0639397,
    "ECCENTRICITY": 0.0001519,
    "INCLINATION": 53.0549,
    "RA_OF_ASC_NODE": 286.9586,
    "ARG_OF_PERICENTER": 65.5398,
    "MEAN_ANOMALY": 294.5749,
    "EPHEMERIS_TYPE": 0,
    "CLASSIFICATION_TYPE": "U",
    "NORAD_CAT_ID": 45554,
    "ELEMENT_SET_NO": 999,
    "REV_AT_EPOCH": 12464,
    "BSTAR": 3.1686e-5,
    "MEAN_MOTION_DOT": 1.9e-6,
    "MEAN_MOTION_DDOT": 0
},{
    "OBJECT_NAME": "STARLINK-1327",
    "OBJECT_ID": "2020-025AA",
    "EPOCH": "2022-07-20T17:40:39.512352",
    "MEAN_MOTION": 15.06409978,
    "ECCENTRICITY": 0.0001387,
    "INCLINATION": 53.0545,
    "RA_OF_ASC_NODE": 288.0275,
    "ARG_OF_PERICENTER": 89.7682,
    "MEAN_ANOMALY": 270.3466,
    "EPHEMERIS_TYPE": 0,
    "CLASSIFICATION_TYPE": "U",
    "NORAD_CAT_ID": 45555,
    "ELEMENT_SET_NO": 999,
    "REV_AT_EPOCH": 12521,
    "BSTAR": 7.534e-5,
    "MEAN_MOTION_DOT": 8.41e-6,
    "MEAN_MOTION_DDOT": 0
},{
    "OBJECT_NAME": "STARLINK-1334",
    "OBJECT_ID": "2020-025AB",
    "EPOCH": "2022-07-20T17:03:31.287456",
    "MEAN_MOTION": 15.06393752,
    "ECCENTRICITY": 0.0001619,
    "INCLINATION": 53.0534,
    "RA_OF_ASC_NODE": 288.1601,
    "ARG_OF_PERICENTER": 86.7331,
    "MEAN_ANOMALY": 273.3844,
    "EPHEMERIS_TYPE": 0,
    "CLASSIFICATION_TYPE": "U",
    "NORAD_CAT_ID": 45556,
    "ELEMENT_SET_NO": 999,
    "REV_AT_EPOCH": 12521,
    "BSTAR": 5.6373e-6,
    "MEAN_MOTION_DOT": -1.98e-6,
    "MEAN_MOTION_DDOT": 0
},{
    "OBJECT_NAME": "STARLINK-1336",
    "OBJECT_ID": "2020-025AC",
    "EPOCH": "2022-07-20T17:14:08.981664",
    "MEAN_MOTION": 15.06389034,
    "ECCENTRICITY": 0.0001159,
    "INCLINATION": 53.055,
    "RA_OF_ASC_NODE": 288.1246,
    "ARG_OF_PERICENTER": 92.4456,
    "MEAN_ANOMALY": 267.6666,
    "EPHEMERIS_TYPE": 0,
    "CLASSIFICATION_TYPE": "U",
    "NORAD_CAT_ID": 45557,
    "ELEMENT_SET_NO": 999,
    "REV_AT_EPOCH": 12521,
    "BSTAR": 1.9796e-5,
    "MEAN_MOTION_DOT": 1.3e-7,
    "MEAN_MOTION_DDOT": 0
},{
    "OBJECT_NAME": "STARLINK-1342",
    "OBJECT_ID": "2020-025AD",
    "EPOCH": "2022-07-20T22:48:30.892320",
    "MEAN_MOTION": 15.06398172,
    "ECCENTRICITY": 0.0001368,
    "INCLINATION": 53.0566,
    "RA_OF_ASC_NODE": 287.0835,
    "ARG_OF_PERICENTER": 74.7368,
    "MEAN_ANOMALY": 285.3772,
    "EPHEMERIS_TYPE": 0,
    "CLASSIFICATION_TYPE": "U",
    "NORAD_CAT_ID": 45558,
    "ELEMENT_SET_NO": 999,
    "REV_AT_EPOCH": 12464,
    "BSTAR": 0.00017147,
    "MEAN_MOTION_DOT": 2.273e-5,
    "MEAN_MOTION_DDOT": 0
},{
    "OBJECT_NAME": "STARLINK-1344",
    "OBJECT_ID": "2020-025AE",
    "EPOCH": "2022-07-20T17:12:45.258336",
    "MEAN_MOTION": 15.06418471,
    "ECCENTRICITY": 0.0001486,
    "INCLINATION": 53.0534,
    "RA_OF_ASC_NODE": 288.0593,
    "ARG_OF_PERICENTER": 68.5871,
    "MEAN_ANOMALY": 291.5276,
    "EPHEMERIS_TYPE": 0,
    "CLASSIFICATION_TYPE": "U",
    "NORAD_CAT_ID": 45559,
    "ELEMENT_SET_NO": 999,
    "REV_AT_EPOCH": 12521,
    "BSTAR": 0.00015583,
    "MEAN_MOTION_DOT": 2.041e-5,
    "MEAN_MOTION_DDOT": 0
},{
    "OBJECT_NAME": "STARLINK-1346",
    "OBJECT_ID": "2020-025AF",
    "EPOCH": "2022-07-20T16:58:11.087328",
    "MEAN_MOTION": 15.06415886,
    "ECCENTRICITY": 0.0001514,
    "INCLINATION": 53.054,
    "RA_OF_ASC_NODE": 278.1611,
    "ARG_OF_PERICENTER": 81.1821,
    "MEAN_ANOMALY": 278.9339,
    "EPHEMERIS_TYPE": 0,
    "CLASSIFICATION_TYPE": "U",
    "NORAD_CAT_ID": 45560,
    "ELEMENT_SET_NO": 999,
    "REV_AT_EPOCH": 12535,
    "BSTAR": 0.00016875,
    "MEAN_MOTION_DOT": 2.234e-5,
    "MEAN_MOTION_DDOT": 0
},{
    "OBJECT_NAME": "STARLINK-1348",
    "OBJECT_ID": "2020-025AG",
    "EPOCH": "2022-07-20T12:03:08.330400",
    "MEAN_MOTION": 15.14615751,
    "ECCENTRICITY": 0.0002143,
    "INCLINATION": 53.0545,
    "RA_OF_ASC_NODE": 196.5446,
    "ARG_OF_PERICENTER": 33.5954,
    "MEAN_ANOMALY": 326.5174,
    "EPHEMERIS_TYPE": 0,
    "CLASSIFICATION_TYPE": "U",
    "NORAD_CAT_ID": 45561,
    "ELEMENT_SET_NO": 999,
    "REV_AT_EPOCH": 12648,
    "BSTAR": 0.0010228,
    "MEAN_MOTION_DOT": 0.00018861,
    "MEAN_MOTION_DDOT": 0
},{
    "OBJECT_NAME": "STARLINK-1354",
    "OBJECT_ID": "2020-025AH",
    "EPOCH": "2022-07-20T22:16:39.578304",
    "MEAN_MOTION": 15.06406246,
    "ECCENTRICITY": 0.0001338,
    "INCLINATION": 53.0539,
    "RA_OF_ASC_NODE": 287.1616,
    "ARG_OF_PERICENTER": 89.4069,
    "MEAN_ANOMALY": 270.7073,
    "EPHEMERIS_TYPE": 0,
    "CLASSIFICATION_TYPE": "U",
    "NORAD_CAT_ID": 45562,
    "ELEMENT_SET_NO": 999,
    "REV_AT_EPOCH": 12464,
    "BSTAR": 6.6382e-5,
    "MEAN_MOTION_DOT": 7.08e-6,
    "MEAN_MOTION_DDOT": 0
},{
    "OBJECT_NAME": "STARLINK-1355",
    "OBJECT_ID": "2020-025AJ",
    "EPOCH": "2022-07-20T17:51:16.737408",
    "MEAN_MOTION": 15.06405324,
    "ECCENTRICITY": 0.0001472,
    "INCLINATION": 53.0525,
    "RA_OF_ASC_NODE": 287.9983,
    "ARG_OF_PERICENTER": 94.3019,
    "MEAN_ANOMALY": 265.8139,
    "EPHEMERIS_TYPE": 0,
    "CLASSIFICATION_TYPE": "U",
    "NORAD_CAT_ID": 45563,
    "ELEMENT_SET_NO": 999,
    "REV_AT_EPOCH": 12521,
    "BSTAR": 0.00010752,
    "MEAN_MOTION_DOT": 1.321e-5,
    "MEAN_MOTION_DDOT": 0
},{
    "OBJECT_NAME": "STARLINK-1356",
    "OBJECT_ID": "2020-025AK",
    "EPOCH": "2022-07-21T04:54:46.580256",
    "MEAN_MOTION": 15.06408199,
    "ECCENTRICITY": 0.0001669,
    "INCLINATION": 53.0542,
    "RA_OF_ASC_NODE": 285.9305,
    "ARG_OF_PERICENTER": 86.5103,
    "MEAN_ANOMALY": 273.6076,
    "EPHEMERIS_TYPE": 0,
    "CLASSIFICATION_TYPE": "U",
    "NORAD_CAT_ID": 45564,
    "ELEMENT_SET_NO": 999,
    "REV_AT_EPOCH": 12468,
    "BSTAR": 0.00016119,
    "MEAN_MOTION_DOT": 2.121e-5,
    "MEAN_MOTION_DDOT": 0
},{
    "OBJECT_NAME": "STARLINK-1357",
    "OBJECT_ID": "2020-025AL",
    "EPOCH": "2022-07-20T22:21:59.365440",
    "MEAN_MOTION": 15.06397717,
    "ECCENTRICITY": 0.0001364,
    "INCLINATION": 53.0538,
    "RA_OF_ASC_NODE": 287.155,
    "ARG_OF_PERICENTER": 81.264,
    "MEAN_ANOMALY": 278.8504,
    "EPHEMERIS_TYPE": 0,
    "CLASSIFICATION_TYPE": "U",
    "NORAD_CAT_ID": 45565,
    "ELEMENT_SET_NO": 999,
    "REV_AT_EPOCH": 12464,
    "BSTAR": 6.2193e-5,
    "MEAN_MOTION_DOT": 6.45e-6,
    "MEAN_MOTION_DDOT": 0
},{
    "OBJECT_NAME": "STARLINK-1358",
    "OBJECT_ID": "2020-025AM",
    "EPOCH": "2022-07-20T22:43:13.507968",
    "MEAN_MOTION": 15.06388671,
    "ECCENTRICITY": 0.0001391,
    "INCLINATION": 53.0554,
    "RA_OF_ASC_NODE": 287.0999,
    "ARG_OF_PERICENTER": 78.4332,
    "MEAN_ANOMALY": 281.6813,
    "EPHEMERIS_TYPE": 0,
    "CLASSIFICATION_TYPE": "U",
    "NORAD_CAT_ID": 45566,
    "ELEMENT_SET_NO": 999,
    "REV_AT_EPOCH": 12464,
    "BSTAR": 2.542e-5,
    "MEAN_MOTION_DOT": 9.7e-7,
    "MEAN_MOTION_DDOT": 0
},{
    "OBJECT_NAME": "STARLINK-1361",
    "OBJECT_ID": "2020-025AN",
    "EPOCH": "2022-07-20T22:59:09.274272",
    "MEAN_MOTION": 15.06391067,
    "ECCENTRICITY": 0.0001396,
    "INCLINATION": 53.0534,
    "RA_OF_ASC_NODE": 287.0288,
    "ARG_OF_PERICENTER": 86.2222,
    "MEAN_ANOMALY": 273.8926,
    "EPHEMERIS_TYPE": 0,
    "CLASSIFICATION_TYPE": "U",
    "NORAD_CAT_ID": 45567,
    "ELEMENT_SET_NO": 999,
    "REV_AT_EPOCH": 12464,
    "BSTAR": 0.00011076,
    "MEAN_MOTION_DOT": 1.368e-5,
    "MEAN_MOTION_DDOT": 0
},{
    "OBJECT_NAME": "STARLINK-1363",
    "OBJECT_ID": "2020-025AP",
    "EPOCH": "2022-07-20T16:58:15.459168",
    "MEAN_MOTION": 15.06392555,
    "ECCENTRICITY": 0.0001323,
    "INCLINATION": 53.0543,
    "RA_OF_ASC_NODE": 288.4089,
    "ARG_OF_PERICENTER": 81.8042,
    "MEAN_ANOMALY": 278.3097,
    "EPHEMERIS_TYPE": 0,
    "CLASSIFICATION_TYPE": "U",
    "NORAD_CAT_ID": 45568,
    "ELEMENT_SET_NO": 999,
    "REV_AT_EPOCH": 12520,
    "BSTAR": 2.2359e-5,
    "MEAN_MOTION_DOT": 5.2e-7,
    "MEAN_MOTION_DDOT": 0
},{
    "OBJECT_NAME": "STARLINK-1366",
    "OBJECT_ID": "2020-025AQ",
    "EPOCH": "2022-07-20T23:04:27.389568",
    "MEAN_MOTION": 15.06389056,
    "ECCENTRICITY": 0.0001462,
    "INCLINATION": 53.0535,
    "RA_OF_ASC_NODE": 287.0252,
    "ARG_OF_PERICENTER": 72.6003,
    "MEAN_ANOMALY": 287.5145,
    "EPHEMERIS_TYPE": 0,
    "CLASSIFICATION_TYPE": "U",
    "NORAD_CAT_ID": 45569,
    "ELEMENT_SET_NO": 999,
    "REV_AT_EPOCH": 12464,
    "BSTAR": 2.7813e-5,
    "MEAN_MOTION_DOT": 1.33e-6,
    "MEAN_MOTION_DDOT": 0
},{
    "OBJECT_NAME": "STARLINK-1376",
    "OBJECT_ID": "2020-025AR",
    "EPOCH": "2022-07-20T18:07:12.710208",
    "MEAN_MOTION": 15.06409331,
    "ECCENTRICITY": 0.0001362,
    "INCLINATION": 53.0539,
    "RA_OF_ASC_NODE": 287.9423,
    "ARG_OF_PERICENTER": 88.6224,
    "MEAN_ANOMALY": 271.4921,
    "EPHEMERIS_TYPE": 0,
    "CLASSIFICATION_TYPE": "U",
    "NORAD_CAT_ID": 45570,
    "ELEMENT_SET_NO": 999,
    "REV_AT_EPOCH": 12521,
    "BSTAR": 0.00043345,
    "MEAN_MOTION_DOT": 6.182e-5,
    "MEAN_MOTION_DDOT": 0
}]
